CCSDS_OMM_VERS = 2.0
CREATION_DATE  = 
ORIGINATOR     = 

OBJECT_NAME    = SILVERSAT
OBJECT_ID      = 1998-067XV
CENTER_NAME    = EARTH
REF_FRAME      = TEME
TIME_SYSTEM    = UTC
MEAN_ELEMENT_THEORY = SGP/SGP4

EPOCH          = 2025-12-13T19:41:48.869664
MEAN_MOTION    = 15.51822369
ECCENTRICITY   = .00043322
INCLINATION    = 51.6299
RA_OF_ASC_NODE = 137.0079
ARG_OF_PERICENTER = 234.1355
MEAN_ANOMALY   = 125.9233

EPHEMERIS_TYPE = 0
CLASSIFICATION_TYPE = U
NORAD_CAT_ID   = 66909
ELEMENT_SET_NO = 999
REV_AT_EPOCH   = 178
BSTAR          = .12407437E-2
MEAN_MOTION_DOT = .7584E-3
MEAN_MOTION_DDOT = 0

CCSDS_OMM_VERS = 2.0
CREATION_DATE  = 
ORIGINATOR     = 

OBJECT_NAME    = 1998-067XW
OBJECT_ID      = 1998-067XW
CENTER_NAME    = EARTH
REF_FRAME      = TEME
TIME_SYSTEM    = UTC
MEAN_ELEMENT_THEORY = SGP/SGP4

EPOCH          = 2025-12-14T03:23:10.619232
MEAN_MOTION    = 15.51967036
ECCENTRICITY   = .00049581
INCLINATION    = 51.6295
RA_OF_ASC_NODE = 135.3982
ARG_OF_PERICENTER = 216.2881
MEAN_ANOMALY   = 143.7773

EPHEMERIS_TYPE = 0
CLASSIFICATION_TYPE = U
NORAD_CAT_ID   = 66910
ELEMENT_SET_NO = 999
REV_AT_EPOCH   = 183
BSTAR          = .10799417E-2
MEAN_MOTION_DOT = .66221E-3
MEAN_MOTION_DDOT = 0

CCSDS_OMM_VERS = 2.0
CREATION_DATE  = 
ORIGINATOR     = 

OBJECT_NAME    = 1998-067XX
OBJECT_ID      = 1998-067XX
CENTER_NAME    = EARTH
REF_FRAME      = TEME
TIME_SYSTEM    = UTC
MEAN_ELEMENT_THEORY = SGP/SGP4

EPOCH          = 2025-12-14T03:21:47.573280
MEAN_MOTION    = 15.52259497
ECCENTRICITY   = .0004664
INCLINATION    = 51.6298
RA_OF_ASC_NODE = 135.3916
ARG_OF_PERICENTER = 217.9466
MEAN_ANOMALY   = 142.1196

EPHEMERIS_TYPE = 0
CLASSIFICATION_TYPE = U
NORAD_CAT_ID   = 66911
ELEMENT_SET_NO = 999
REV_AT_EPOCH   = 182
BSTAR          = .12814197E-2
MEAN_MOTION_DOT = .79628E-3
MEAN_MOTION_DDOT = 0

CCSDS_OMM_VERS = 2.0
CREATION_DATE  = 
ORIGINATOR     = 

OBJECT_NAME    = 1998-067XY
OBJECT_ID      = 1998-067XY
CENTER_NAME    = EARTH
REF_FRAME      = TEME
TIME_SYSTEM    = UTC
MEAN_ELEMENT_THEORY = SGP/SGP4

EPOCH          = 2025-12-14T03:28:32.818656
MEAN_MOTION    = 15.51307028
ECCENTRICITY   = .00043936
INCLINATION    = 51.6302
RA_OF_ASC_NODE = 135.4229
ARG_OF_PERICENTER = 231.7260
MEAN_ANOMALY   = 128.3335

EPHEMERIS_TYPE = 0
CLASSIFICATION_TYPE = U
NORAD_CAT_ID   = 66912
ELEMENT_SET_NO = 999
REV_AT_EPOCH   = 182
BSTAR          = .91761575E-3
MEAN_MOTION_DOT = .54792E-3
MEAN_MOTION_DDOT = 0

CCSDS_OMM_VERS = 2.0
CREATION_DATE  = 
ORIGINATOR     = 

OBJECT_NAME    = 2025-284A
OBJECT_ID      = 2025-284A
CENTER_NAME    = EARTH
REF_FRAME      = TEME
TIME_SYSTEM    = UTC
MEAN_ELEMENT_THEORY = SGP/SGP4

EPOCH          = 2025-12-14T07:25:56.957664
MEAN_MOTION    = 15.19005444
ECCENTRICITY   = .00120135
INCLINATION    = 80.4040
RA_OF_ASC_NODE = 127.7746
ARG_OF_PERICENTER = 199.4952
MEAN_ANOMALY   = 160.5818

EPHEMERIS_TYPE = 0
CLASSIFICATION_TYPE = U
NORAD_CAT_ID   = 66913
ELEMENT_SET_NO = 999
REV_AT_EPOCH   = 136
BSTAR          = .51452541E-3
MEAN_MOTION_DOT = .10811E-3
MEAN_MOTION_DDOT = 0

CCSDS_OMM_VERS = 2.0
CREATION_DATE  = 
ORIGINATOR     = 

OBJECT_NAME    = 2025-284B
OBJECT_ID      = 2025-284B
CENTER_NAME    = EARTH
REF_FRAME      = TEME
TIME_SYSTEM    = UTC
MEAN_ELEMENT_THEORY = SGP/SGP4

EPOCH          = 2025-12-14T09:00:18.538848
MEAN_MOTION    = 15.18957053
ECCENTRICITY   = .00082919
INCLINATION    = 80.4048
RA_OF_ASC_NODE = 127.6928
ARG_OF_PERICENTER = 241.7793
MEAN_ANOMALY   = 118.2597

EPHEMERIS_TYPE = 0
CLASSIFICATION_TYPE = U
NORAD_CAT_ID   = 66914
ELEMENT_SET_NO = 999
REV_AT_EPOCH   = 137
BSTAR          = .49158384E-3
MEAN_MOTION_DOT = .10305E-3
MEAN_MOTION_DDOT = 0

CCSDS_OMM_VERS = 2.0
CREATION_DATE  = 
ORIGINATOR     = 

OBJECT_NAME    = HULIANWANG DIGUI-105
OBJECT_ID      = 2025-285A
CENTER_NAME    = EARTH
REF_FRAME      = TEME
TIME_SYSTEM    = UTC
MEAN_ELEMENT_THEORY = SGP/SGP4

EPOCH          = 2025-12-14T08:09:41.298048
MEAN_MOTION    = 14.03715738
ECCENTRICITY   = .00079476
INCLINATION    = 50.0042
RA_OF_ASC_NODE = 110.7555
ARG_OF_PERICENTER = 288.0635
MEAN_ANOMALY   = 71.9403

EPHEMERIS_TYPE = 0
CLASSIFICATION_TYPE = U
NORAD_CAT_ID   = 66915
ELEMENT_SET_NO = 999
REV_AT_EPOCH   = 113
BSTAR          = .13268831E-3
MEAN_MOTION_DOT = .59E-6
MEAN_MOTION_DDOT = 0

CCSDS_OMM_VERS = 2.0
CREATION_DATE  = 
ORIGINATOR     = 

OBJECT_NAME    = HULIANWANG DIGUI-106
OBJECT_ID      = 2025-285B
CENTER_NAME    = EARTH
REF_FRAME      = TEME
TIME_SYSTEM    = UTC
MEAN_ELEMENT_THEORY = SGP/SGP4

EPOCH          = 2025-12-14T08:05:51.629568
MEAN_MOTION    = 14.04835051
ECCENTRICITY   = .00069679
INCLINATION    = 50.0052
RA_OF_ASC_NODE = 110.7424
ARG_OF_PERICENTER = 281.6694
MEAN_ANOMALY   = 78.3429

EPHEMERIS_TYPE = 0
CLASSIFICATION_TYPE = U
NORAD_CAT_ID   = 66916
ELEMENT_SET_NO = 999
REV_AT_EPOCH   = 113
BSTAR          = .17432928E-4
MEAN_MOTION_DOT = -.124E-5
MEAN_MOTION_DDOT = 0

CCSDS_OMM_VERS = 2.0
CREATION_DATE  = 
ORIGINATOR     = 

OBJECT_NAME    = HULIANWANG DIGUI-107
OBJECT_ID      = 2025-285C
CENTER_NAME    = EARTH
REF_FRAME      = TEME
TIME_SYSTEM    = UTC
MEAN_ELEMENT_THEORY = SGP/SGP4

EPOCH          = 2025-12-14T08:04:37.661664
MEAN_MOTION    = 14.05293730
ECCENTRICITY   = .0008308
INCLINATION    = 50.0065
RA_OF_ASC_NODE = 110.7408
ARG_OF_PERICENTER = 294.2783
MEAN_ANOMALY   = 65.7254

EPHEMERIS_TYPE = 0
CLASSIFICATION_TYPE = U
NORAD_CAT_ID   = 66917
ELEMENT_SET_NO = 999
REV_AT_EPOCH   = 113
BSTAR          = .14115221E-3
MEAN_MOTION_DOT = .78E-6
MEAN_MOTION_DDOT = 0

CCSDS_OMM_VERS = 2.0
CREATION_DATE  = 
ORIGINATOR     = 

OBJECT_NAME    = HULIANWANG DIGUI-108
OBJECT_ID      = 2025-285D
CENTER_NAME    = EARTH
REF_FRAME      = TEME
TIME_SYSTEM    = UTC
MEAN_ELEMENT_THEORY = SGP/SGP4

EPOCH          = 2025-12-14T08:03:37.369152
MEAN_MOTION    = 14.05417522
ECCENTRICITY   = .0006314
INCLINATION    = 50.0089
RA_OF_ASC_NODE = 110.7358
ARG_OF_PERICENTER = 283.2589
MEAN_ANOMALY   = 76.7612

EPHEMERIS_TYPE = 0
CLASSIFICATION_TYPE = U
NORAD_CAT_ID   = 66918
ELEMENT_SET_NO = 999
REV_AT_EPOCH   = 113
BSTAR          = .14847105E-3
MEAN_MOTION_DOT = .9E-6
MEAN_MOTION_DDOT = 0

CCSDS_OMM_VERS = 2.0
CREATION_DATE  = 
ORIGINATOR     = 

OBJECT_NAME    = HULIANWANG DIGUI-109
OBJECT_ID      = 2025-285E
CENTER_NAME    = EARTH
REF_FRAME      = TEME
TIME_SYSTEM    = UTC
MEAN_ELEMENT_THEORY = SGP/SGP4

EPOCH          = 2025-12-14T08:03:28.700640
MEAN_MOTION    = 14.05717696
ECCENTRICITY   = .00078921
INCLINATION    = 50.0064
RA_OF_ASC_NODE = 110.7355
ARG_OF_PERICENTER = 297.0727
MEAN_ANOMALY   = 62.9372

EPHEMERIS_TYPE = 0
CLASSIFICATION_TYPE = U
NORAD_CAT_ID   = 66919
ELEMENT_SET_NO = 999
REV_AT_EPOCH   = 113
BSTAR          = .15709328E-3
MEAN_MOTION_DOT = .106E-5
MEAN_MOTION_DDOT = 0

CCSDS_OMM_VERS = 2.0
CREATION_DATE  = 
ORIGINATOR     = 

OBJECT_NAME    = HULIANWANG DIGUI-110
OBJECT_ID      = 2025-285F
CENTER_NAME    = EARTH
REF_FRAME      = TEME
TIME_SYSTEM    = UTC
MEAN_ELEMENT_THEORY = SGP/SGP4

EPOCH          = 2025-12-14T08:02:24.203040
MEAN_MOTION    = 14.05851874
ECCENTRICITY   = .00058537
INCLINATION    = 50.0097
RA_OF_ASC_NODE = 110.7358
ARG_OF_PERICENTER = 293.8936
MEAN_ANOMALY   = 66.1355

EPHEMERIS_TYPE = 0
CLASSIFICATION_TYPE = U
NORAD_CAT_ID   = 66920
ELEMENT_SET_NO = 999
REV_AT_EPOCH   = 113
BSTAR          = .14216705E-3
MEAN_MOTION_DOT = .82E-6
MEAN_MOTION_DDOT = 0

