SILVERSAT               
1 66909U 98067XV  25347.82070451  .00075840  00000+0  12407-2 0  9997
2 66909  51.6299 137.0079 0004332 234.1355 125.9233 15.51822369  1789
1998-067XW              
1 66910U 98067XW  25348.14109513  .00066221  00000+0  10799-2 0  9992
2 66910  51.6295 135.3982 0004958 216.2881 143.7773 15.51967036  1834
1998-067XX              
1 66911U 98067XX  25348.14013395  .00079628  00000+0  12814-2 0  9990
2 66911  51.6298 135.3916 0004664 217.9466 142.1196 15.52259497  1823
1998-067XY              
1 66912U 98067XY  25348.14482429  .00054792  00000+0  91762-3 0  9994
2 66912  51.6302 135.4229 0004393 231.7260 128.3335 15.51307028  1827
2025-284A               
1 66913U 25284A   25348.30968701  .00010811  00000+0  51453-3 0  9993
2 66913  80.4040 127.7746 0012013 199.4952 160.5818 15.19005444  1365
2025-284B               
1 66914U 25284B   25348.37521457  .00010305  00000+0  49158-3 0  9991
2 66914  80.4048 127.6928 0008291 241.7793 118.2597 15.18957053  1378
HULIANWANG DIGUI-105    
1 66915U 25285A   25348.34006132  .00000059  00000+0  13269-3 0  9997
2 66915  50.0042 110.7555 0007947 288.0635  71.9403 14.03715738  1131
HULIANWANG DIGUI-106    
1 66916U 25285B   25348.33740312 -.00000124  00000+0  17433-4 0  9994
2 66916  50.0052 110.7424 0006967 281.6694  78.3429 14.04835051  1134
HULIANWANG DIGUI-107    
1 66917U 25285C   25348.33654701  .00000078  00000+0  14115-3 0  9991
2 66917  50.0065 110.7408 0008308 294.2783  65.7254 14.05293730  1130
HULIANWANG DIGUI-108    
1 66918U 25285D   25348.33584918  .00000090  00000+0  14847-3 0  9990
2 66918  50.0089 110.7358 0006314 283.2589  76.7612 14.05417522  1135
HULIANWANG DIGUI-109    
1 66919U 25285E   25348.33574885  .00000106  00000+0  15709-3 0  9999
2 66919  50.0064 110.7355 0007892 297.0727  62.9372 14.05717696  1130
HULIANWANG DIGUI-110    
1 66920U 25285F   25348.33500235  .00000082  00000+0  14217-3 0  9995
2 66920  50.0097 110.7358 0005853 293.8936  66.1355 14.05851874  1136
